 2015 1229 2149 34.7 L                                                         1
 2015-12-29-2150.mseed                                                         6
 STAT SP IPHASW D HRMM SECON CODA AMPLIT PERI AZIMU VELO AIN AR TRES W  DIS CAZ7
                                                                                
